From: horizons@ssd.jpl.nasa.gov (Horizons Ephemeris System)
Subject: [Horizons] SMALL BODY #C(500@10)_T(NEOWISE (C/2017 C1)) (1/1)
Date: February 16, 2021 at 11:07:31 AM PST

Automated mail xmit by MAIL_REQUEST, PID= 31974 Tue Feb 16 11:07:31 2021
++++++++++++++++++++++++++++++++ (part 1 of 1)  +++++++++++++++++++++++++++++++


*******************************************************************************
Ephemeris / MAIL_REQUEST Tue Feb 16 11:07:31 2021 Pasadena, USA  / Horizons
*******************************************************************************
Target body name: NEOWISE (C/2017 C1)             {source: JPL#6}
Center body name: Sun (10)                        {source: DE431}
Center-site name: BODY CENTER
*******************************************************************************
Start time      : A.D. 2014-Jan-19 00:00:00.0000 TDB
Stop  time      : A.D. 2020-Jan-19 00:00:00.0000 TDB
Step-size       : 20160 minutes
*******************************************************************************
Center geodetic : 0.00000000,0.00000000,0.0000000 {E-lon(deg),Lat(deg),Alt(km)}
Center cylindric: 0.00000000,0.00000000,0.0000000 {E-lon(deg),Dxy(km),Dz(km)}
Center radii    : 696000.0 x 696000.0 x 696000.0 k{Equator, meridian, pole}    
Small perturbers: Yes                             {source: SB431-N16}
Output units    : AU-D
Output type     : GEOMETRIC cartesian states
Output format   : 3 (position, velocity, LT, range, range-rate)
Reference frame : Ecliptic of J2000.0
*******************************************************************************
Initial IAU76/J2000 heliocentric ecliptic osculating elements (au, days, deg.):
 EPOCH=  2457818.5 ! 2017-Mar-06.0000000 (TDB)    RMSW= n.a.                  
  EC= .9278155254603973   QR= 1.501754935277586   TP= 2457772.4463717206      
  OM= 357.4571908255517   W= 110.204315680309     IN= 65.75224126600266       
 Equivalent ICRF heliocentric equatorial cartesian coordinates (au, au/d):
  X=-1.272315119586474E+00  Y= 6.609783711482525E-02  Z= 1.007072656851430E+00
 VX=-1.512290740081230E-02 VY= 4.528352295748300E-04 VZ=-1.101339054272813E-02
Comet physical (GM= km^3/s^2; RAD= km):                                        
  GM= n.a.                RAD= n.a.                                           
  M1=  18.1     M2=  n.a.     k1=  8.5    k2= n.a.     PHCOF= n.a.            
*******************************************************************************
           JDTDB,            Calendar Date (TDB),                      X,                      Y,                      Z,                     VX,                     VY,                     VZ,                     LT,                     RG,                     RR,
**************************************************************************************************************************************************************************************************************************************************************************
$$SOE
2458860.500000000, A.D. 2020-Jan-12 00:00:00.0000, -3.591494687785556E+00, -3.546647380455745E+00, -8.212827042831616E+00,  5.221478951205948E-04, -2.831608966199898E-03, -6.226438224202348E-03,  5.567553831709112E-02,  9.639920630853336E+00,  6.151926932813730E-03,
